{
  "type": "FeatureCollection",
  "features": [
    {
      "type": "Feature",
      "properties": {
        "norad_id": 28051,
        "name": "IRS-P6 (RESOURCESAT-1)",
        "group": "resource",
        "lat": 81.63664636637176,
        "lon": -61.17555098200463,
        "alt_km": 786.7274403399488,
        "timestamp": "2025-12-03T10:52:57.106176+00:00",
        "meta_object_name": "IRS-P6 (RESOURCESAT-1)",
        "meta_object_id": "2003-046A",
        "meta_epoch": "2025-12-03T05:48:43.284096",
        "meta_mean_motion": 14.36067238,
        "meta_eccentricity": 0.0063645,
        "meta_inclination": 98.2191,
        "meta_ra_of_asc_node": 18.0888,
        "meta_arg_of_pericenter": 209.2969,
        "meta_mean_anomaly": 228.2094,
        "meta_ephemeris_type": 0,
        "meta_classification_type": "U",
        "meta_norad_cat_id": 28051,
        "meta_element_set_no": 999,
        "meta_rev_at_epoch": 15240,
        "meta_bstar": 0.00011756,
        "meta_mean_motion_dot": 3.09e-06,
        "meta_mean_motion_ddot": 0,
        "tle_line1": "1 28051U 03046A   25337.24216764  .00000309  00000+0  11756-3 0  9995",
        "tle_line2": "2 28051  98.2191  18.0888 0063645 209.2969 228.2094 14.36067238152401"
      },
      "geometry": {
        "type": "Point",
        "coordinates": [
          -61.17555098200463,
          81.63664636637176
        ]
      }
    },
    {
      "type": "Feature",
      "properties": {
        "norad_id": 28220,
        "name": "SHIYAN-1 (SY-1)",
        "group": "resource",
        "lat": 43.90142189175017,
        "lon": -133.87824059318686,
        "alt_km": 481.97070734760473,
        "timestamp": "2025-12-03T10:52:57.106188+00:00",
        "meta_object_name": "SHIYAN-1 (SY-1)",
        "meta_object_id": "2004-012A",
        "meta_epoch": "2025-12-03T04:00:14.321952",
        "meta_mean_motion": 15.27750794,
        "meta_eccentricity": 0.0006339,
        "meta_inclination": 97.8957,
        "meta_ra_of_asc_node": 38.143,
        "meta_arg_of_pericenter": 0.9771,
        "meta_mean_anomaly": 359.1478,
        "meta_ephemeris_type": 0,
        "meta_classification_type": "U",
        "meta_norad_cat_id": 28220,
        "meta_element_set_no": 999,
        "meta_rev_at_epoch": 18110,
        "meta_bstar": 0.0006145,
        "meta_mean_motion_dot": 0.00016607,
        "meta_mean_motion_ddot": 0,
        "tle_line1": "1 28220U 04012A   25337.16683243  .00016607  00000+0  61450-3 0  9992",
        "tle_line2": "2 28220  97.8957  38.1430 0006339   0.9771 359.1478 15.27750794181100"
      },
      "geometry": {
        "type": "Point",
        "coordinates": [
          -133.87824059318686,
          43.90142189175017
        ]
      }
    },
    {
      "type": "Feature",
      "properties": {
        "norad_id": 28376,
        "name": "AURA",
        "group": "resource",
        "lat": -64.72669052364958,
        "lon": 89.58815888981823,
        "alt_km": 698.1459674742837,
        "timestamp": "2025-12-03T10:52:57.106200+00:00",
        "meta_object_name": "AURA",
        "meta_object_id": "2004-026A",
        "meta_epoch": "2025-12-03T03:11:05.183232",
        "meta_mean_motion": 14.60908511,
        "meta_eccentricity": 0.0001082,
        "meta_inclination": 98.317,
        "meta_ra_of_asc_node": 287.3156,
        "meta_arg_of_pericenter": 90.8294,
        "meta_mean_anomaly": 269.3031,
        "meta_ephemeris_type": 0,
        "meta_classification_type": "U",
        "meta_norad_cat_id": 28376,
        "meta_element_set_no": 999,
        "meta_rev_at_epoch": 13758,
        "meta_bstar": 0.00032115,
        "meta_mean_motion_dot": 1.524e-05,
        "meta_mean_motion_ddot": 0,
        "tle_line1": "1 28376U 04026A   25337.13269888  .00001524  00000+0  32115-3 0  9999",
        "tle_line2": "2 28376  98.3170 287.3156 0001082  90.8294 269.3031 14.60908511137584"
      },
      "geometry": {
        "type": "Point",
        "coordinates": [
          89.58815888981823,
          -64.72669052364958
        ]
      }
    },
    {
      "type": "Feature",
      "properties": {
        "norad_id": 28649,
        "name": "IRS-P5 (CARTOSAT-1)",
        "group": "resource",
        "lat": -16.394534790080954,
        "lon": -177.95760703737307,
        "alt_km": 602.7568098785077,
        "timestamp": "2025-12-03T10:52:57.106212+00:00",
        "meta_object_name": "IRS-P5 (CARTOSAT-1)",
        "meta_object_id": "2005-017A",
        "meta_epoch": "2025-12-03T01:56:49.999200",
        "meta_mean_motion": 14.90349213,
        "meta_eccentricity": 0.0001781,
        "meta_inclination": 97.5503,
        "meta_ra_of_asc_node": 3.923,
        "meta_arg_of_pericenter": 53.2669,
        "meta_mean_anomaly": 306.8713,
        "meta_ephemeris_type": 0,
        "meta_classification_type": "U",
        "meta_norad_cat_id": 28649,
        "meta_element_set_no": 999,
        "meta_rev_at_epoch": 11460,
        "meta_bstar": 0.00027051,
        "meta_mean_motion_dot": 2.579e-05,
        "meta_mean_motion_ddot": 0,
        "tle_line1": "1 28649U 05017A   25337.08113425  .00002579  00000+0  27051-3 0  9996",
        "tle_line2": "2 28649  97.5503   3.9230 0001781  53.2669 306.8713 14.90349213114601"
      },
      "geometry": {
        "type": "Point",
        "coordinates": [
          -177.95760703737307,
          -16.394534790080954
        ]
      }
    },
    {
      "type": "Feature",
      "properties": {
        "norad_id": 28893,
        "name": "SINAH 1",
        "group": "resource",
        "lat": -8.623691067414466,
        "lon": 107.24845023511314,
        "alt_km": 694.8951984920186,
        "timestamp": "2025-12-03T10:52:57.106223+00:00",
        "meta_object_name": "SINAH 1",
        "meta_object_id": "2005-043D",
        "meta_epoch": "2025-12-03T02:43:13.556640",
        "meta_mean_motion": 14.63944236,
        "meta_eccentricity": 0.0014812,
        "meta_inclination": 98.2599,
        "meta_ra_of_asc_node": 105.6452,
        "meta_arg_of_pericenter": 165.9395,
        "meta_mean_anomaly": 194.2223,
        "meta_ephemeris_type": 0,
        "meta_classification_type": "U",
        "meta_norad_cat_id": 28893,
        "meta_element_set_no": 999,
        "meta_rev_at_epoch": 7183,
        "meta_bstar": 0.00014559,
        "meta_mean_motion_dot": 7.14e-06,
        "meta_mean_motion_ddot": 0,
        "tle_line1": "1 28893U 05043D   25337.11335135  .00000714  00000+0  14559-3 0  9992",
        "tle_line2": "2 28893  98.2599 105.6452 0014812 165.9395 194.2223 14.63944236 71835"
      },
      "geometry": {
        "type": "Point",
        "coordinates": [
          107.24845023511314,
          -8.623691067414466
        ]
      }
    },
    {
      "type": "Feature",
      "properties": {
        "norad_id": 29079,
        "name": "EROS B",
        "group": "resource",
        "lat": 0.1502464048541621,
        "lon": -86.37108757678163,
        "alt_km": 376.44623349683934,
        "timestamp": "2025-12-03T10:52:57.106234+00:00",
        "meta_object_name": "EROS B",
        "meta_object_id": "2006-014A",
        "meta_epoch": "2025-12-03T03:58:36.313248",
        "meta_mean_motion": 15.64552627,
        "meta_eccentricity": 0.0002292,
        "meta_inclination": 97.3487,
        "meta_ra_of_asc_node": 93.3097,
        "meta_arg_of_pericenter": 233.7176,
        "meta_mean_anomaly": 126.3871,
        "meta_ephemeris_type": 0,
        "meta_classification_type": "U",
        "meta_norad_cat_id": 29079,
        "meta_element_set_no": 999,
        "meta_rev_at_epoch": 8930,
        "meta_bstar": 0.0017302,
        "meta_mean_motion_dot": 0.00169732,
        "meta_mean_motion_ddot": 0,
        "tle_line1": "1 29079U 06014A   25337.16569807  .00169732  00000+0  17302-2 0  9992",
        "tle_line2": "2 29079  97.3487  93.3097 0002292 233.7176 126.3871 15.64552627 89303"
      },
      "geometry": {
        "type": "Point",
        "coordinates": [
          -86.37108757678163,
          0.1502464048541621
        ]
      }
    },
    {
      "type": "Feature",
      "properties": {
        "norad_id": 29228,
        "name": "RESURS-DK 1",
        "group": "resource",
        "lat": 69.91989173658763,
        "lon": -144.24774914506003,
        "alt_km": 527.860867633005,
        "timestamp": "2025-12-03T10:52:57.106245+00:00",
        "meta_object_name": "RESURS-DK 1",
        "meta_object_id": "2006-021A",
        "meta_epoch": "2025-12-02T20:11:48.097824",
        "meta_mean_motion": 15.12068181,
        "meta_eccentricity": 0.0007822,
        "meta_inclination": 69.9327,
        "meta_ra_of_asc_node": 127.4146,
        "meta_arg_of_pericenter": 265.8783,
        "meta_mean_anomaly": 94.1489,
        "meta_ephemeris_type": 0,
        "meta_classification_type": "U",
        "meta_norad_cat_id": 29228,
        "meta_element_set_no": 999,
        "meta_rev_at_epoch": 7288,
        "meta_bstar": 0.00025634,
        "meta_mean_motion_dot": 4.317e-05,
        "meta_mean_motion_ddot": 0,
        "tle_line1": "1 29228U 06021A   25336.84152891  .00004317  00000+0  25634-3 0  9996",
        "tle_line2": "2 29228  69.9327 127.4146 0007822 265.8783  94.1489 15.12068181 72887"
      },
      "geometry": {
        "type": "Point",
        "coordinates": [
          -144.24774914506003,
          69.91989173658763
        ]
      }
    }
  ]
}